NORAD_CAT_ID,OBJECT_NAME,OBJECT_TYPE,EPOCH,MEAN_MOTION,ECCENTRICITY,INCLINATION,RA_OF_ASC_NODE,ARG_OF_PERICENTER,MEAN_ANOMALY,BSTAR,MEAN_MOTION_DOT,MEAN_MOTION_DDOT,TLE_LINE0,TLE_LINE1,TLE_LINE2,SEMIMAJOR_AXIS,PERIOD,APOGEE,PERIGEE,DECAYED
55742.0,STARLINK-5594,PAYLOAD,2023-11-26 18:29:56,14.98332382,0.0002656,69.9984,187.2026,270.243,89.8425,1.6544e-05,1.04e-06,0.0,0 STARLINK-5594,1 55742U 23028B   23330.77079551  .00000104  00000-0  16544-4 0  9999,2 55742  69.9984 187.2026 0002656 270.2430  89.8425 14.98332382 41120,6950.186,96.107,573.896,570.205,0.0
55742.0,STARLINK-5594,PAYLOAD,2023-11-26 21:42:12,14.98332607,0.000258,69.9986,186.8661,268.2167,91.8697,2.2439e-05,1.75e-06,0.0,0 STARLINK-5594,1 55742U 23028B   23330.90431478  .00000175  00000-0  22439-4 0  9992,2 55742  69.9986 186.8661 0002580 268.2167  91.8697 14.98332607 41148,6950.185,96.107,573.843,570.257,0.0
55742.0,STARLINK-5594,PAYLOAD,2023-11-26 23:18:20,14.98334658,0.0002595,69.9986,186.6979,266.9946,93.0916,5.4784e-05,5.61e-06,0.0,0 STARLINK-5594,1 55742U 23028B   23330.97107241  .00000561  00000-0  54784-4 0  9994,2 55742  69.9986 186.6979 0002595 266.9946  93.0916 14.98334658 41151,6950.178,96.107,573.847,570.24,0.0
55742.0,STARLINK-5594,PAYLOAD,2023-11-27 18:31:57,14.9835844,0.0002731,69.9982,184.6769,275.065,85.0197,-0.00047857,-5.803e-05,0.0,0 STARLINK-5594,1 55742U 23028B   23331.77218944 -.00005803  00000-0 -47857-3 0  9994,2 55742  69.9982 184.6769 0002731 275.0650  85.0197 14.98358440 41277,6950.105,96.105,573.868,570.072,0.0
55742.0,STARLINK-5594,PAYLOAD,2023-11-27 21:44:13,14.98347192,0.000257,69.9982,184.3405,272.4124,87.6741,-0.00022988,-2.836e-05,0.0,0 STARLINK-5594,1 55742U 23028B   23331.90570897 -.00002836  00000-0 -22988-3 0  9998,2 55742  69.9982 184.3405 0002570 272.4124  87.6741 14.98347192 41296,6950.14,96.106,573.791,570.219,0.0
55742.0,STARLINK-5594,PAYLOAD,2023-11-28 00:56:28,14.98358575,0.0002704,69.9983,184.0046,273.6976,86.3874,-0.0003825,-4.657e-05,0.0,0 STARLINK-5594,1 55742U 23028B   23332.03922272 -.00004657  00000-0 -38250-3 0  9993,2 55742  69.9983 184.0046 0002704 273.6976  86.3874 14.98358575 41315,6950.105,96.105,573.849,570.09,0.0
55742.0,STARLINK-5594,PAYLOAD,2023-11-28 20:10:06,14.98329628,0.0002563,69.9989,181.9842,266.018,94.0686,6.2078e-05,6.48e-06,0.0,0 STARLINK-5594,1 55742U 23028B   23332.84035424  .00000648  00000-0  62078-4 0  9996,2 55742  69.9989 181.9842 0002563 266.0180  94.0686 14.98329628 41434,6950.194,96.107,573.84,570.278,0.0
55742.0,STARLINK-5594,PAYLOAD,2023-11-28 23:22:22,14.98331402,0.0002428,69.9998,181.6494,254.9246,105.1644,8.4726e-05,9.18e-06,0.0,0 STARLINK-5594,1 55742U 23028B   23332.97387190  .00000918  00000-0  84726-4 0  9994,2 55742  69.9998 181.6494 0002428 254.9246 105.1644 14.98331402 41456,6950.189,96.107,573.741,570.366,0.0
55742.0,STARLINK-5594,PAYLOAD,2023-11-29 20:12:07,14.98330225,0.0002559,69.9994,179.4607,262.7732,97.3136,0.00011798,1.315e-05,0.0,0 STARLINK-5594,1 55742U 23028B   23333.84175119  .00001315  00000-0  11798-3 0  9997,2 55742  69.9994 179.4607 0002559 262.7732  97.3136 14.98330225 41589,6950.192,96.107,573.836,570.279,0.0
55742.0,STARLINK-5594,PAYLOAD,2023-11-29 23:24:24,14.98312246,0.0002442,69.9993,179.1243,273.7098,86.3782,-0.00012148,-1.541e-05,0.0,0 STARLINK-5594,1 55742U 23028B   23333.97528875 -.00001541  00000-0 -12148-3 0  9995,2 55742  69.9993 179.1243 0002442 273.7098  86.3782 14.98312246 41600,6950.248,96.108,573.81,570.416,0.0
55742.0,STARLINK-5594,PAYLOAD,2023-11-30 20:14:09,14.9832756,0.0002556,70.0,176.9366,251.9468,108.1413,6.8903e-05,7.29e-06,0.0,0 STARLINK-5594,1 55742U 23028B   23334.84316464  .00000729  00000-0  68903-4 0  9997,2 55742  70.0000 176.9366 0002556 251.9468 108.1413 14.98327560 41731,6950.2,96.107,573.842,570.289,0.0
55742.0,STARLINK-5594,PAYLOAD,2023-12-01 12:15:29,14.98335676,0.0002119,70.0008,175.2518,243.3948,116.6994,0.00024738,2.86e-05,0.0,0 STARLINK-5594,1 55742U 23028B   23335.51075617  .00002860  00000-0  24738-3 0  9999,2 55742  70.0008 175.2518 0002119 243.3948 116.6994 14.98335676 41839,6950.175,96.107,573.513,570.568,0.0
55742.0,STARLINK-5594,PAYLOAD,2023-12-01 21:52:18,14.98342169,0.0002829,69.9996,174.2433,260.6727,99.4112,0.00047279,5.554e-05,0.0,0 STARLINK-5594,1 55742U 23028B   23335.91132050  .00005554  00000-0  47279-3 0  9996,2 55742  69.9996 174.2433 0002829 260.6727  99.4112 14.98342169 41893,6950.155,96.106,573.986,570.054,0.0
55742.0,STARLINK-5594,PAYLOAD,2023-12-02 13:53:38,14.983494,0.0002845,69.9994,172.5598,264.1733,95.9102,0.000318,3.705e-05,0.0,0 STARLINK-5594,1 55742U 23028B   23336.57891383  .00003705  00000-0  31800-3 0  9999,2 55742  69.9994 172.5598 0002845 264.1733  95.9102 14.98349400 41994,6950.133,96.106,573.975,570.021,0.0
55742.0,STARLINK-5594,PAYLOAD,2023-12-02 20:18:09,14.98351891,0.0002563,70.0006,171.8872,239.1589,120.9318,0.00026985,3.13e-05,0.0,0 STARLINK-5594,1 55742U 23028B   23336.84594900  .00003130  00000-0  26985-3 0  9994,2 55742  70.0006 171.8872 0002563 239.1589 120.9318 14.98351891 42037,6950.125,96.106,573.772,570.209,0.0
55742.0,STARLINK-5594,PAYLOAD,2023-12-02 21:54:17,14.98365429,0.0002616,70.0006,171.7187,259.3268,100.7597,0.00062159,7.338e-05,0.0,0 STARLINK-5594,1 55742U 23028B   23336.91270342  .00007338  00000-0  62159-3 0  9990,2 55742  70.0006 171.7187 0002616 259.3268 100.7597 14.98365429 42040,6950.083,96.105,573.766,570.13,0.0
55742.0,STARLINK-5594,PAYLOAD,2023-12-02 23:30:25,14.98376705,0.0002669,70.0001,171.5506,276.1399,83.9456,0.00089045,0.0001056,0.0,0 STARLINK-5594,1 55742U 23028B   23336.97945829  .00010560  00000-0  89045-3 0  9999,2 55742  70.0001 171.5506 0002669 276.1399  83.9456 14.98376705 42054,6950.048,96.104,573.768,570.058,0.0
55742.0,STARLINK-5594,PAYLOAD,2023-12-03 13:55:38,14.98338304,0.0002894,70.0001,170.0356,264.9133,95.1695,-0.00021031,-2.602e-05,0.0,0 STARLINK-5594,1 55742U 23028B   23337.58030589 -.00002602  00000-0 -21031-3 0  9996,2 55742  70.0001 170.0356 0002894 264.9133  95.1695 14.98338304 42145,6950.167,96.106,574.044,570.021,0.0
55742.0,STARLINK-5594,PAYLOAD,2023-12-03 20:20:11,14.98313564,0.0002769,70.0,169.3618,266.4704,93.6138,-0.00077615,-9.337e-05,0.0,0 STARLINK-5594,1 55742U 23028B   23337.84735512 -.00009337  00000-0 -77615-3 0  9994,2 55742  70.0000 169.3618 0002769 266.4704  93.6138 14.98313564 42188,6950.244,96.108,574.033,570.184,0.0
55742.0,STARLINK-5594,PAYLOAD,2023-12-03 23:32:27,14.9831083,0.0002862,69.9999,169.0253,271.798,88.2852,-0.00075115,-9.04e-05,0.0,0 STARLINK-5594,1 55742U 23028B   23337.98087825 -.00009040  00000-0 -75115-3 0  9990,2 55742  69.9999 169.0253 0002862 271.7980  88.2852 14.98310830 42202,6950.252,96.108,574.106,570.128,0.0
55742.0,STARLINK-5594,PAYLOAD,2023-12-05 12:23:34,14.983168,0.0002747,70.0021,165.1591,276.6581,83.4265,0.00042141,4.937e-05,0.0,0 STARLINK-5594,1 55742U 23028B   23339.51637034  .00004937  00000-0  42141-3 0  9995,2 55742  70.0021 165.1591 0002747 276.6581  83.4265 14.98316800 42439,6950.234,96.108,574.008,570.189,0.0
55742.0,STARLINK-5594,PAYLOAD,2023-12-05 22:00:22,14.98323737,0.0002656,70.0016,164.1483,272.4203,87.6651,0.00053387,6.282e-05,0.0,0 STARLINK-5594,1 55742U 23028B   23339.91692975  .00006282  00000-0  53387-3 0  9993,2 55742  70.0016 164.1483 0002656 272.4203  87.6651 14.98323737 42494,6950.212,96.107,573.923,570.231,0.0
55742.0,STARLINK-5594,PAYLOAD,2023-12-06 12:25:33,14.98357117,0.0004097,69.9995,162.6294,281.7511,78.3189,0.0007009,8.286e-05,0.0,0 STARLINK-5594,1 55742U 23028B   23340.51774681  .00008286  00000-0  70090-3 0  9992,2 55742  69.9995 162.6294 0004097 281.7511  78.3189 14.98357117 42588,6950.109,96.105,574.821,569.127,0.0
55742.0,STARLINK-5594,PAYLOAD,2023-12-06 22:02:18,14.98424218,0.0002423,70.0004,161.6186,278.3218,81.7666,0.0022263,0.00026636,0.0,0 STARLINK-5594,1 55742U 23028B   23340.91827371  .00026636  00000-0  22263-2 0  9998,2 55742  70.0004 161.6186 0002423 278.3218  81.7666 14.98424218 42640,6949.902,96.101,573.451,570.083,0.0
55742.0,STARLINK-5594,PAYLOAD,2023-12-07 12:27:31,14.98352516,0.0003539,70.0027,160.1016,277.925,82.1507,-0.00054998,-6.653e-05,0.0,0 STARLINK-5594,1 55742U 23028B   23341.51911534 -.00006653  00000-0 -54998-3 0  9990,2 55742  70.0027 160.1016 0003539 277.9250  82.1507 14.98352516 42731,6950.123,96.106,574.448,569.529,0.0
55742.0,STARLINK-5594,PAYLOAD,2023-12-08 12:29:28,14.98437196,0.0003593,69.9948,157.5752,257.2784,102.7974,-0.0044365,-0.00052781,0.0,0 STARLINK-5594,1 55742U 23028B   23342.52046897 -.00052781  00000-0 -44365-2 0  9992,2 55742  69.9948 157.5752 0003593 257.2784 102.7974 14.98437196 42881,6949.861,96.1,574.224,569.229,0.0
55742.0,STARLINK-5594,PAYLOAD,2023-12-09 12:31:34,14.98317148,0.0003149,70.0007,155.0547,274.4353,85.6446,0.00017774,2.028e-05,0.0,0 STARLINK-5594,1 55742U 23028B   23343.52193198  .00002028  00000-0  17774-3 0  9992,2 55742  70.0007 155.0547 0003149 274.4353  85.6446 14.98317148 43030,6950.233,96.108,574.286,569.909,0.0
55742.0,STARLINK-5594,PAYLOAD,2023-12-10 12:33:36,14.983183,0.0003301,69.999,152.5285,273.5525,86.5256,9.8137e-05,1.078e-05,0.0,0 STARLINK-5594,1 55742U 23028B   23344.52334073  .00001078  00000-0  98137-4 0  9999,2 55742  69.9990 152.5285 0003301 273.5525  86.5256 14.98318300 43186,6950.229,96.108,574.388,569.8,0.0
55742.0,STARLINK-5594,PAYLOAD,2023-12-10 14:09:44,14.98318719,0.0003288,69.9976,152.3598,273.3816,86.6967,0.00012194,1.362e-05,0.0,0 STARLINK-5594,1 55742U 23028B   23344.59010225  .00001362  00000-0  12194-3 0  9990,2 55742  69.9976 152.3598 0003288 273.3816  86.6967 14.98318719 43195,6950.228,96.108,574.378,569.808,0.0
55742.0,STARLINK-5594,PAYLOAD,2023-12-10 20:34:17,14.98317438,0.0003293,69.9981,151.6868,272.677,87.4012,8.8166e-05,9.59e-06,0.0,0 STARLINK-5594,1 55742U 23028B   23344.85714499  .00000959  00000-0  88166-4 0  9997,2 55742  69.9981 151.6868 0003293 272.6770  87.4012 14.98317438 43232,6950.232,96.108,574.385,569.808,0.0
